HAWK-2B                 
1 47508U 21006CZ  26068.67629241  .00009474  00000+0  29651-3 0  9991
2 47508  97.2334 114.1140 0007102 185.9063 174.2098 15.33301353284246
STARLINK-33804          
1 63511U 25071U   26068.47445332  .00024618  00000+0  84097-3 0  9996
2 63511  53.1582 141.1182 0001263  58.6313 301.4811 15.30183426 52365
